{
    "links": {
        "self": "http://www.neowsapp.com/rest/v1/neo/3772845?api_key=iIulBulltgU6a56xZRHN4H3l9WmuAYTsLGpBGhQ2"
    },
    "id": "3772845",
    "neo_reference_id": "3772845",
    "name": "(2017 FN91)",
    "designation": "2017 FN91",
    "nasa_jpl_url": "http://ssd.jpl.nasa.gov/sbdb.cgi?sstr=3772845",
    "absolute_magnitude_h": 25.4,
    "estimated_diameter": {
        "kilometers": {
            "estimated_diameter_min": 0.022108281,
            "estimated_diameter_max": 0.0494356193
        },
        "meters": {
            "estimated_diameter_min": 22.1082810359,
            "estimated_diameter_max": 49.435619262
        },
        "miles": {
            "estimated_diameter_min": 0.0137374447,
            "estimated_diameter_max": 0.0307178602
        },
        "feet": {
            "estimated_diameter_min": 72.5337327539,
            "estimated_diameter_max": 162.1903570994
        }
    },
    "is_potentially_hazardous_asteroid": false,
    "close_approach_data": [
        {
            "close_approach_date": "2017-03-11",
            "close_approach_date_full": "2017-Mar-11 12:24",
            "epoch_date_close_approach": 1489235040000,
            "relative_velocity": {
                "kilometers_per_second": "7.3629913851",
                "kilometers_per_hour": "26506.7689864773",
                "miles_per_hour": "16470.2754294031"
            },
            "miss_distance": {
                "astronomical": "0.0636387657",
                "lunar": "24.7554798573",
                "kilometers": "9520223.798149059",
                "miles": "5915592.7584886542"
            },
            "orbiting_body": "Earth"
        }
    ],
    "orbital_data": {
        "orbit_id": "5",
        "orbit_determination_date": "2017-04-06 08:19:06",
        "first_observation_date": "2017-03-25",
        "last_observation_date": "2017-03-30",
        "data_arc_in_days": 5,
        "observations_used": 31,
        "orbit_uncertainty": "8",
        "minimum_orbit_intersection": ".0480815",
        "jupiter_tisserand_invariant": "3.800",
        "epoch_osculation": "2457839.5",
        "eccentricity": ".466077976818071",
        "semi_major_axis": "1.903650241549775",
        "inclination": "4.394575657705689",
        "ascending_node_longitude": "6.064219596387486",
        "orbital_period": "959.3546043934152",
        "perihelion_distance": "1.016400788399024",
        "perihelion_argument": "140.8062840210304",
        "aphelion_distance": "2.790899694700527",
        "perihelion_time": "2457804.902541584036",
        "mean_anomaly": "12.9827750580529",
        "mean_motion": ".3752522772615683",
        "equinox": "J2000",
        "orbit_class": {
            "orbit_class_type": "APO",
            "orbit_class_description": "Near-Earth asteroid orbits which cross the Earth’s orbit similar to that of 1862 Apollo",
            "orbit_class_range": "a (semi-major axis) > 1.0 AU; q (perihelion) < 1.017 AU"
        }
    },
    "is_sentry_object": false
}